[
    {
        "Altitude(m)": 553957.6741982148,
        "Argument of Periapsis(deg)": 0.019868973332140504,
        "Eccentricity": 0.0,
        "Inclination(deg)": 53.0,
        "Latitude(deg)": 2.3485181544361278,
        "Longitude(deg)": -0.6190362792656661,
        "Mean Anomaly(deg)": 3.0020786027328237,
        "RAAN(deg)": 99.97043010558403,
        "Satellite Name": "Starlink Shell 1 460",
        "Satellite Number": 460,
        "Semi-Major Axis(m)": 6931778.249405717,
        "Time(s)": 570
    },
    {
        "Altitude(m)": 553906.8144730113,
        "Argument of Periapsis(deg)": 0.02021755181165174,
        "Eccentricity": 0.0,
        "Inclination(deg)": 53.0,
        "Latitude(deg)": 2.852203757783833,
        "Longitude(deg)": -0.2828604138541763,
        "Mean Anomaly(deg)": 3.628909806289481,
        "RAAN(deg)": 99.96991133550658,
        "Satellite Name": "Starlink Shell 1 460",
        "Satellite Number": 460,
        "Semi-Major Axis(m)": 6931778.249405717,
        "Time(s)": 580
    },
    {
        "Altitude(m)": 553858.776127854,
        "Argument of Periapsis(deg)": 0.020566130291162974,
        "Eccentricity": 0.0,
        "Inclination(deg)": 53.0,
        "Latitude(deg)": 3.355768921386653,
        "Longitude(deg)": 0.05365017794087699,
        "Mean Anomaly(deg)": 4.255741009846139,
        "RAAN(deg)": 99.9693925654291,
        "Satellite Name": "Starlink Shell 1 460",
        "Satellite Number": 460,
        "Semi-Major Axis(m)": 6931778.249405717,
        "Time(s)": 590
    },
    {
        "Altitude(m)": 553813.5588087678,
        "Argument of Periapsis(deg)": 0.020914708770674213,
        "Eccentricity": 0.0,
        "Inclination(deg)": 53.0,
        "Latitude(deg)": 3.8591905067552172,
        "Longitude(deg)": 0.3905535342501979,
        "Mean Anomaly(deg)": 4.88257221340291,
        "RAAN(deg)": 99.96887379535163,
        "Satellite Name": "Starlink Shell 1 460",
        "Satellite Number": 460,
        "Semi-Major Axis(m)": 6931778.249405717,
        "Time(s)": 600
    },
    {
        "Altitude(m)": 553771.1608134421,
        "Argument of Periapsis(deg)": 0.021263287250185448,
        "Eccentricity": 0.0,
        "Inclination(deg)": 53.0,
        "Latitude(deg)": 4.362445293233119,
        "Longitude(deg)": 0.727907867382381,
        "Mean Anomaly(deg)": 5.509403416959556,
        "RAAN(deg)": 99.96835502527415,
        "Satellite Name": "Starlink Shell 1 460",
        "Satellite Number": 460,
        "Semi-Major Axis(m)": 6931778.249405717,
        "Time(s)": 610
    },
    {
        "Altitude(m)": 553731.5790948691,
        "Argument of Periapsis(deg)": 0.021611865729696686,
        "Eccentricity": 0.0,
        "Inclination(deg)": 53.0,
        "Latitude(deg)": 4.865509966015953,
        "Longitude(deg)": 1.0657720935689325,
        "Mean Anomaly(deg)": 6.136234620516314,
        "RAAN(deg)": 99.96783625519667,
        "Satellite Name": "Starlink Shell 1 460",
        "Satellite Number": 460,
        "Semi-Major Axis(m)": 6931778.249405717,
        "Time(s)": 620
    },
    {
        "Altitude(m)": 553694.8092656183,
        "Argument of Periapsis(deg)": 0.02196044420920792,
        "Eccentricity": 0.0,
        "Inclination(deg)": 53.0,
        "Latitude(deg)": 5.368361104076903,
        "Longitude(deg)": 1.4042046817988625,
        "Mean Anomaly(deg)": 6.763065824072985,
        "RAAN(deg)": 99.9673174851192,
        "Satellite Name": "Starlink Shell 1 460",
        "Satellite Number": 460,
        "Semi-Major Axis(m)": 6931778.249405717,
        "Time(s)": 630
    },
    {
        "Altitude(m)": 553660.8456028054,
        "Argument of Periapsis(deg)": 0.02230902268871916,
        "Eccentricity": 0.0,
        "Inclination(deg)": 53.0,
        "Latitude(deg)": 5.870975167997886,
        "Longitude(deg)": 1.7432650241764192,
        "Mean Anomaly(deg)": 7.389897027629732,
        "RAAN(deg)": 99.96679871504175,
        "Satellite Name": "Starlink Shell 1 460",
        "Satellite Number": 460,
        "Semi-Major Axis(m)": 6931778.249405717,
        "Time(s)": 640
    },
    {
        "Altitude(m)": 553629.6810537226,
        "Argument of Periapsis(deg)": 0.022657601168230398,
        "Eccentricity": 0.0,
        "Inclination(deg)": 53.0,
        "Latitude(deg)": 6.373328487682756,
        "Longitude(deg)": 2.083012284894421,
        "Mean Anomaly(deg)": 8.016728231186503,
        "RAAN(deg)": 99.96627994496427,
        "Satellite Name": "Starlink Shell 1 460",
        "Satellite Number": 460,
        "Semi-Major Axis(m)": 6931778.249405717,
        "Time(s)": 650
    },
    {
        "Altitude(m)": 553601.3072421133,
        "Argument of Periapsis(deg)": 0.023006179647741636,
        "Eccentricity": 0.0,
        "Inclination(deg)": 53.0,
        "Latitude(deg)": 6.875397249950758,
        "Longitude(deg)": 2.4235059302564768,
        "Mean Anomaly(deg)": 8.64355943474316,
        "RAAN(deg)": 99.9657611748868,
        "Satellite Name": "Starlink Shell 1 460",
        "Satellite Number": 460,
        "Semi-Major Axis(m)": 6931778.249405717,
        "Time(s)": 660
    },
    {
        "Altitude(m)": 553575.7144751198,
        "Argument of Periapsis(deg)": 0.023354758127252868,
        "Eccentricity": 0.0,
        "Inclination(deg)": 53.0,
        "Latitude(deg)": 7.377157485994703,
        "Longitude(deg)": 2.764806258780941,
        "Mean Anomaly(deg)": 9.270390638299906,
        "RAAN(deg)": 99.96524240480932,
        "Satellite Name": "Starlink Shell 1 460",
        "Satellite Number": 460,
        "Semi-Major Axis(m)": 6931778.249405717,
        "Time(s)": 670
    },
    {
        "Altitude(m)": 553552.8917508954,
        "Argument of Periapsis(deg)": 0.023703336606764106,
        "Eccentricity": 0.0,
        "Inclination(deg)": 53.0,
        "Latitude(deg)": 7.878585058688584,
        "Longitude(deg)": 3.1069734185172813,
        "Mean Anomaly(deg)": 9.897221841856577,
        "RAAN(deg)": 99.96472363473184,
        "Satellite Name": "Starlink Shell 1 460",
        "Satellite Number": 460,
        "Semi-Major Axis(m)": 6931778.249405717,
        "Time(s)": 680
    },
    {
        "Altitude(m)": 553532.8267668379,
        "Argument of Periapsis(deg)": 0.024051915086275345,
        "Eccentricity": 0.0,
        "Inclination(deg)": 53.0,
        "Latitude(deg)": 8.379655649740265,
        "Longitude(deg)": 3.450067937325903,
        "Mean Anomaly(deg)": 10.524053045413337,
        "RAAN(deg)": 99.96420486465436,
        "Satellite Name": "Starlink Shell 1 460",
        "Satellite Number": 460,
        "Semi-Major Axis(m)": 6931778.249405717,
        "Time(s)": 690
    },
    {
        "Altitude(m)": 553515.5059284911,
        "Argument of Periapsis(deg)": 0.024400493565786583,
        "Eccentricity": 0.0,
        "Inclination(deg)": 53.0,
        "Latitude(deg)": 8.880344746672355,
        "Longitude(deg)": 3.79415125324921,
        "Mean Anomaly(deg)": 11.150884248970096,
        "RAAN(deg)": 99.96368609457691,
        "Satellite Name": "Starlink Shell 1 460",
        "Satellite Number": 460,
        "Semi-Major Axis(m)": 6931778.249405717,
        "Time(s)": 700
    },
    {
        "Altitude(m)": 553500.9143590824,
        "Argument of Periapsis(deg)": 0.024749072045297815,
        "Eccentricity": 0.0,
        "Inclination(deg)": 53.0,
        "Latitude(deg)": 9.380627629618482,
        "Longitude(deg)": 4.139284732103051,
        "Mean Anomaly(deg)": 11.777715452526753,
        "RAAN(deg)": 99.96316732449944,
        "Satellite Name": "Starlink Shell 1 460",
        "Satellite Number": 460,
        "Semi-Major Axis(m)": 6931778.249405717,
        "Time(s)": 710
    },
    {
        "Altitude(m)": 553489.0359096864,
        "Argument of Periapsis(deg)": 0.025097650524809053,
        "Eccentricity": 0.0,
        "Inclination(deg)": 53.0,
        "Latitude(deg)": 9.880479357927628,
        "Longitude(deg)": 4.485530198036728,
        "Mean Anomaly(deg)": 12.404546656083525,
        "RAAN(deg)": 99.96264855442196,
        "Satellite Name": "Starlink Shell 1 460",
        "Satellite Number": 460,
        "Semi-Major Axis(m)": 6931778.249405717,
        "Time(s)": 720
    },
    {
        "Altitude(m)": 553479.8531700246,
        "Argument of Periapsis(deg)": 0.02544622900432029,
        "Eccentricity": 0.0,
        "Inclination(deg)": 53.0,
        "Latitude(deg)": 10.379874756560927,
        "Longitude(deg)": 4.832950464185803,
        "Mean Anomaly(deg)": 13.03137785964017,
        "RAAN(deg)": 99.96212978434448,
        "Satellite Name": "Starlink Shell 1 460",
        "Satellite Number": 460,
        "Semi-Major Axis(m)": 6931778.249405717,
        "Time(s)": 730
    },
    {
        "Altitude(m)": 553473.3474798839,
        "Argument of Periapsis(deg)": 0.02579480748383153,
        "Eccentricity": 0.0,
        "Inclination(deg)": 53.0,
        "Latitude(deg)": 10.878788402268004,
        "Longitude(deg)": 5.181608350545587,
        "Mean Anomaly(deg)": 13.658209063196827,
        "RAAN(deg)": 99.961611014267,
        "Satellite Name": "Starlink Shell 1 460",
        "Satellite Number": 460,
        "Semi-Major Axis(m)": 6931778.249405717,
        "Time(s)": 740
    },
    {
        "Altitude(m)": 553469.4989411503,
        "Argument of Periapsis(deg)": 0.026143385963342765,
        "Eccentricity": 0.0,
        "Inclination(deg)": 53.0,
        "Latitude(deg)": 11.377194609533975,
        "Longitude(deg)": 5.531567214807765,
        "Mean Anomaly(deg)": 14.2850402667537,
        "RAAN(deg)": 99.96109224418953,
        "Satellite Name": "Starlink Shell 1 460",
        "Satellite Number": 460,
        "Semi-Major Axis(m)": 6931778.249405717,
        "Time(s)": 750
    }
]